{
    "links": {
        "self": "http://www.neowsapp.com/rest/v1/neo/3448967?api_key=iIulBulltgU6a56xZRHN4H3l9WmuAYTsLGpBGhQ2"
    },
    "id": "3448967",
    "neo_reference_id": "3448967",
    "name": "(2009 DV43)",
    "designation": "2009 DV43",
    "nasa_jpl_url": "http://ssd.jpl.nasa.gov/sbdb.cgi?sstr=3448967",
    "absolute_magnitude_h": 23.7,
    "estimated_diameter": {
        "kilometers": {
            "estimated_diameter_min": 0.0483676488,
            "estimated_diameter_max": 0.1081533507
        },
        "meters": {
            "estimated_diameter_min": 48.3676488219,
            "estimated_diameter_max": 108.1533506775
        },
        "miles": {
            "estimated_diameter_min": 0.0300542543,
            "estimated_diameter_max": 0.0672033557
        },
        "feet": {
            "estimated_diameter_min": 158.6865169607,
            "estimated_diameter_max": 354.8338390368
        }
    },
    "is_potentially_hazardous_asteroid": false,
    "close_approach_data": [
        {
            "close_approach_date": "2009-03-10",
            "close_approach_date_full": "2009-Mar-10 03:06",
            "epoch_date_close_approach": 1236654360000,
            "relative_velocity": {
                "kilometers_per_second": "17.0440104994",
                "kilometers_per_hour": "61358.4377977943",
                "miles_per_hour": "38125.7470860795"
            },
            "miss_distance": {
                "astronomical": "0.0217410815",
                "lunar": "8.4572807035",
                "kilometers": "3252419.483896405",
                "miles": "2020959.754144189"
            },
            "orbiting_body": "Earth"
        },
        {
            "close_approach_date": "2009-04-09",
            "close_approach_date_full": "2009-Apr-09 22:34",
            "epoch_date_close_approach": 1239316440000,
            "relative_velocity": {
                "kilometers_per_second": "13.4444816935",
                "kilometers_per_hour": "48400.1340964398",
                "miles_per_hour": "30073.9611000906"
            },
            "miss_distance": {
                "astronomical": "0.1109025152",
                "lunar": "43.1410784128",
                "kilometers": "16590780.051562624",
                "miles": "10309032.6878432512"
            },
            "orbiting_body": "Venus"
        },
        {
            "close_approach_date": "2150-04-05",
            "close_approach_date_full": "2150-Apr-05 01:56",
            "epoch_date_close_approach": 5688410160000,
            "relative_velocity": {
                "kilometers_per_second": "14.1355922435",
                "kilometers_per_hour": "50888.1320765932",
                "miles_per_hour": "31619.9062894809"
            },
            "miss_distance": {
                "astronomical": "0.1259986524",
                "lunar": "49.0134757836",
                "kilometers": "18849130.021910388",
                "miles": "11712306.2887558344"
            },
            "orbiting_body": "Venus"
        },
        {
            "close_approach_date": "2153-08-17",
            "close_approach_date_full": "2153-Aug-17 15:53",
            "epoch_date_close_approach": 5794732380000,
            "relative_velocity": {
                "kilometers_per_second": "25.2819907832",
                "kilometers_per_hour": "91015.166819493",
                "miles_per_hour": "56553.2851829233"
            },
            "miss_distance": {
                "astronomical": "0.2816889231",
                "lunar": "109.5769910859",
                "kilometers": "42140062.898353797",
                "miles": "26184620.8880325186"
            },
            "orbiting_body": "Earth"
        }
    ],
    "orbital_data": {
        "orbit_id": "15",
        "orbit_determination_date": "2017-04-06 09:01:12",
        "first_observation_date": "2009-02-27",
        "last_observation_date": "2009-03-07",
        "data_arc_in_days": 8,
        "observations_used": 54,
        "orbit_uncertainty": "8",
        "minimum_orbit_intersection": ".0195587",
        "jupiter_tisserand_invariant": "3.336",
        "epoch_osculation": "2454892.5",
        "eccentricity": ".6535598413192134",
        "semi_major_axis": "2.212970344638225",
        "inclination": "4.431856068814683",
        "ascending_node_longitude": "155.7539022560439",
        "orbital_period": "1202.435578680351",
        "perihelion_distance": ".7666617973523419",
        "perihelion_argument": "79.92274427451616",
        "aphelion_distance": "3.659278891924109",
        "perihelion_time": "2454942.489956957574",
        "mean_anomaly": "345.033389876506",
        "mean_motion": ".2993923386690645",
        "equinox": "J2000",
        "orbit_class": {
            "orbit_class_type": "APO",
            "orbit_class_description": "Near-Earth asteroid orbits which cross the Earth’s orbit similar to that of 1862 Apollo",
            "orbit_class_range": "a (semi-major axis) > 1.0 AU; q (perihelion) < 1.017 AU"
        }
    },
    "is_sentry_object": false
}